MAKERSAT 0              
1 43016U 17073D   26068.63673096  .00023659  00000+0  71590-3 0  9993
2 43016  97.4777 310.6155 0115258 266.0743  92.7313 15.27797199451246
STARLINK-32568          
1 62128U 24222Q   26068.53626012  .00039010  00000+0  14201-2 0  9990
2 62128  42.9983 137.2058 0001206 271.2588  88.8126 15.27570226 72463
